{"type":"FeatureCollection","features":[{"type":"Feature","geometry":{"type":"Point","coordinates":[72.7195,3.9868]},"properties":{"islandName":"Maalhos","atoll":"Alifu Alifu","capital":"N"}},{"type":"Feature","geometry":{"type":"Point","coordinates":[72.7467,4.1918]},"properties":{"islandName":"Mathiveri","atoll":"Alifu Alifu","capital":"N"}},{"type":"Feature","geometry":{"type":"Point","coordinates":[72.9913,4.2631]},"properties":{"islandName":"Rasdhoo","atoll":"Alifu Alifu","capital":"Y"}},{"type":"Feature","geometry":{"type":"Point","coordinates":[72.7251,4.0514]},"properties":{"islandName":"Feridhoo","atoll":"Alifu Alifu","capital":"N"}},{"type":"Feature","geometry":{"type":"Point","coordinates":[72.7736,4.1862]},"properties":{"islandName":"Bodufolhudhoo","atoll":"Alifu Alifu","capital":"N"}},{"type":"Feature","geometry":{"type":"Point","coordinates":[72.9597,4.4364]},"properties":{"islandName":"Thoddoo","atoll":"Alifu Alifu","capital":"N"}},{"type":"Feature","geometry":{"type":"Point","coordinates":[72.7442,3.9209]},"properties":{"islandName":"Himandhoo","atoll":"Alifu Alifu","capital":"N"}},{"type":"Feature","geometry":{"type":"Point","coordinates":[72.864,4.2155]},"properties":{"islandName":"Ukulhas","atoll":"Alifu Alifu","capital":"N"}},{"type":"Feature","geometry":{"type":"Point","coordinates":[72.9617,3.7919]},"properties":{"islandName":"Omadhoo","atoll":"Alifu Dhaalu","capital":"N"}},{"type":"Feature","geometry":{"type":"Point","coordinates":[72.7093,3.6986]},"properties":{"islandName":"Mandhoo","atoll":"Alifu Dhaalu","capital":"N"}},{"type":"Feature","geometry":{"type":"Point","coordinates":[72.9562,3.6081]},"properties":{"islandName":"Dhan'gethi","atoll":"Alifu Dhaalu","capital":"N"}},{"type":"Feature","geometry":{"type":"Point","coordinates":[72.8784,3.485]},"properties":{"islandName":"Dhidhdhoo","atoll":"Alifu Dhaalu","capital":"N"}},{"type":"Feature","geometry":{"type":"Point","coordinates":[72.7829,3.4899]},"properties":{"islandName":"Fenfushi","atoll":"Alifu Dhaalu","capital":"N"}},{"type":"Feature","geometry":{"type":"Point","coordinates":[72.9241,3.7755]},"properties":{"islandName":"Kun'burudhoo","atoll":"Alifu Dhaalu","capital":"N"}},{"type":"Feature","geometry":{"type":"Point","coordinates":[72.9239,3.5274]},"properties":{"islandName":"Dhigurah","atoll":"Alifu Dhaalu","capital":"N"}},{"type":"Feature","geometry":{"type":"Point","coordinates":[72.9554,3.8493]},"properties":{"islandName":"Hangnaameedhoo","atoll":"Alifu Dhaalu","capital":"N"}},{"type":"Feature","geometry":{"type":"Point","coordinates":[73.0701,5.3003]},"properties":{"islandName":"Kudarikilu","atoll":"Baa","capital":"N"}},{"type":"Feature","geometry":{"type":"Point","coordinates":[73.0089,5.2759]},"properties":{"islandName":"Kendhoo","atoll":"Baa","capital":"N"}},{"type":"Feature","geometry":{"type":"Point","coordinates":[73.1373,5.2829]},"properties":{"islandName":"Kamadhoo","atoll":"Baa","capital":"N"}},{"type":"Feature","geometry":{"type":"Point","coordinates":[73.1246,5.2155]},"properties":{"islandName":"Kihaadhoo","atoll":"Baa","capital":"N"}},{"type":"Feature","geometry":{"type":"Point","coordinates":[73.1231,5.1881]},"properties":{"islandName":"Dhonfan","atoll":"Baa","capital":"N"}},{"type":"Feature","geometry":{"type":"Point","coordinates":[73.1311,5.1577]},"properties":{"islandName":"Dharavandhoo","atoll":"Baa","capital":"N"}},{"type":"Feature","geometry":{"type":"Point","coordinates":[73.1083,5.1341]},"properties":{"islandName":"Maalhos","atoll":"Baa","capital":"N"}},{"type":"Feature","geometry":{"type":"Point","coordinates":[73.0696,5.103]},"properties":{"islandName":"Eydhafushi","atoll":"Baa","capital":"Y"}},{"type":"Feature","geometry":{"type":"Point","coordinates":[72.9228,5.0079]},"properties":{"islandName":"Hithaadhoo","atoll":"Baa","capital":"N"}},{"type":"Feature","geometry":{"type":"Point","coordinates":[72.8421,5.0227]},"properties":{"islandName":"Thulhaadhoo","atoll":"Baa","capital":"N"}},{"type":"Feature","geometry":{"type":"Point","coordinates":[72.9998,4.875]},"properties":{"islandName":"Goidhoo","atoll":"Baa","capital":"N"}},{"type":"Feature","geometry":{"type":"Point","coordinates":[72.9675,4.8821]},"properties":{"islandName":"Fehendhoo","atoll":"Baa","capital":"N"}},{"type":"Feature","geometry":{"type":"Point","coordinates":[72.9345,4.8846]},"properties":{"islandName":"Fulhadhoo","atoll":"Baa","capital":"N"}},{"type":"Feature","geometry":{"type":"Point","coordinates":[72.9903,2.9369]},"properties":{"islandName":"Ban'didhoo","atoll":"Dhaalu","capital":"N"}},{"type":"Feature","geometry":{"type":"Point","coordinates":[72.9622,2.6955]},"properties":{"islandName":"Maaen'boodhoo","atoll":"Dhaalu","capital":"N"}},{"type":"Feature","geometry":{"type":"Point","coordinates":[72.8952,2.9247]},"properties":{"islandName":"Rin'budhoo","atoll":"Dhaalu","capital":"N"}},{"type":"Feature","geometry":{"type":"Point","coordinates":[72.8879,2.669]},"properties":{"islandName":"Kudahuvadhoo","atoll":"Dhaalu","capital":"Y"}},{"type":"Feature","geometry":{"type":"Point","coordinates":[72.8468,2.8585]},"properties":{"islandName":"Hulhudheli","atoll":"Dhaalu","capital":"N"}},{"type":"Feature","geometry":{"type":"Point","coordinates":[73.0063,2.9979]},"properties":{"islandName":"Meedhoo","atoll":"Dhaalu","capital":"N"}},{"type":"Feature","geometry":{"type":"Point","coordinates":[72.8897,3.0575]},"properties":{"islandName":"Nilandhoo","atoll":"Faafu","capital":"Y"}},{"type":"Feature","geometry":{"type":"Point","coordinates":[72.9257,3.0629]},"properties":{"islandName":"Dharan'boodhoo","atoll":"Faafu","capital":"N"}},{"type":"Feature","geometry":{"type":"Point","coordinates":[72.9638,3.0794]},"properties":{"islandName":"Magoodhoo","atoll":"Faafu","capital":"N"}},{"type":"Feature","geometry":{"type":"Point","coordinates":[72.9834,3.118]},"properties":{"islandName":"Bileiydhoo","atoll":"Faafu","capital":"N"}},{"type":"Feature","geometry":{"type":"Point","coordinates":[73.0021,3.2695]},"properties":{"islandName":"Feeali","atoll":"Faafu","capital":"N"}},{"type":"Feature","geometry":{"type":"Point","coordinates":[73.2413,0.5576]},"properties":{"islandName":"Dhevvadhoo","atoll":"Gaafu Alifu","capital":"N"}},{"type":"Feature","geometry":{"type":"Point","coordinates":[73.5487,0.4994]},"properties":{"islandName":"Kon'dey","atoll":"Gaafu Alifu","capital":"N"}},{"type":"Feature","geometry":{"type":"Point","coordinates":[73.1855,0.837]},"properties":{"islandName":"Kolamaafushi","atoll":"Gaafu Alifu","capital":"N"}},{"type":"Feature","geometry":{"type":"Point","coordinates":[73.4611,0.6197]},"properties":{"islandName":"Dhaandhoo","atoll":"Gaafu Alifu","capital":"N"}},{"type":"Feature","geometry":{"type":"Point","coordinates":[73.5394,0.3521]},"properties":{"islandName":"Kan'duhulhudhoo","atoll":"Gaafu Alifu","capital":"N"}},{"type":"Feature","geometry":{"type":"Point","coordinates":[73.4387,0.7131]},"properties":{"islandName":"Maamendhoo","atoll":"Gaafu Alifu","capital":"N"}},{"type":"Feature","geometry":{"type":"Point","coordinates":[73.4455,0.6368]},"properties":{"islandName":"Nilandhoo","atoll":"Gaafu Alifu","capital":"N"}},{"type":"Feature","geometry":{"type":"Point","coordinates":[73.5678,0.4414]},"properties":{"islandName":"Gemanafushi","atoll":"Gaafu Alifu","capital":"N"}},{"type":"Feature","geometry":{"type":"Point","coordinates":[73.4341,0.757]},"properties":{"islandName":"Vilin'gili","atoll":"Gaafu Alifu","capital":"Y"}},{"type":"Feature","geometry":{"type":"Point","coordinates":[73.4583,0.2911]},"properties":{"islandName":"Gadhdhoo","atoll":"Gaafu Dhaalu","capital":"N"}},{"type":"Feature","geometry":{"type":"Point","coordinates":[72.9985,0.5342]},"properties":{"islandName":"Thinadhoo","atoll":"Gaafu Dhaalu","capital":"Y"}},{"type":"Feature","geometry":{"type":"Point","coordinates":[73.0052,0.4447]},"properties":{"islandName":"Hoan'dehdhoo","atoll":"Gaafu Dhaalu","capital":"N"}},{"type":"Feature","geometry":{"type":"Point","coordinates":[73.2726,0.2272]},"properties":{"islandName":"Vaadhoo","atoll":"Gaafu Dhaalu","capital":"N"}},{"type":"Feature","geometry":{"type":"Point","coordinates":[73.0412,0.2936]},"properties":{"islandName":"Nadellaa","atoll":"Gaafu Dhaalu","capital":"N"}},{"type":"Feature","geometry":{"type":"Point","coordinates":[73.1368,0.2213]},"properties":{"islandName":"Fiyoaree","atoll":"Gaafu Dhaalu","capital":"N"}},{"type":"Feature","geometry":{"type":"Point","coordinates":[73.1043,0.2531]},"properties":{"islandName":"Rathafandhoo","atoll":"Gaafu Dhaalu","capital":"N"}},{"type":"Feature","geometry":{"type":"Point","coordinates":[73.1874,0.1999]},"properties":{"islandName":"Faresmaathodaa","atoll":"Gaafu Dhaalu","capital":"N"}},{"type":"Feature","geometry":{"type":"Point","coordinates":[72.9988,0.4597]},"properties":{"islandName":"Madaveli","atoll":"Gaafu Dhaalu","capital":"N"}},{"type":"Feature","geometry":{"type":"Point","coordinates":[73.16,6.897]},"properties":{"islandName":"Vashafaru","atoll":"Haa Alifu","capital":"N"}},{"type":"Feature","geometry":{"type":"Point","coordinates":[72.8945,6.9827]},"properties":{"islandName":"Hoarafushi","atoll":"Haa Alifu","capital":"N"}},{"type":"Feature","geometry":{"type":"Point","coordinates":[72.9255,7.0846]},"properties":{"islandName":"Uligan","atoll":"Haa Alifu","capital":"N"}},{"type":"Feature","geometry":{"type":"Point","coordinates":[73.1118,6.833]},"properties":{"islandName":"Utheemu","atoll":"Haa Alifu","capital":"N"}},{"type":"Feature","geometry":{"type":"Point","coordinates":[73.2136,6.9497]},"properties":{"islandName":"Kelaa","atoll":"Haa Alifu","capital":"N"}},{"type":"Feature","geometry":{"type":"Point","coordinates":[73.1114,6.8878]},"properties":{"islandName":"Dhidhdhoo","atoll":"Haa Alifu","capital":"Y"}},{"type":"Feature","geometry":{"type":"Point","coordinates":[72.9847,6.8524]},"properties":{"islandName":"Maarandhoo","atoll":"Haa Alifu","capital":"N"}},{"type":"Feature","geometry":{"type":"Point","coordinates":[73.1686,6.8374]},"properties":{"islandName":"Muraidhoo","atoll":"Haa Alifu","capital":"N"}},{"type":"Feature","geometry":{"type":"Point","coordinates":[72.9965,7.0153]},"properties":{"islandName":"Molhadhoo","atoll":"Haa Alifu","capital":"N"}},{"type":"Feature","geometry":{"type":"Point","coordinates":[72.9261,6.9526]},"properties":{"islandName":"Ihavandhoo","atoll":"Haa Alifu","capital":"N"}},{"type":"Feature","geometry":{"type":"Point","coordinates":[72.8992,7.1041]},"properties":{"islandName":"Thuraakunu","atoll":"Haa Alifu","capital":"N"}},{"type":"Feature","geometry":{"type":"Point","coordinates":[72.9943,6.8454]},"properties":{"islandName":"Thakandhoo","atoll":"Haa Alifu","capital":"N"}},{"type":"Feature","geometry":{"type":"Point","coordinates":[73.2067,6.8173]},"properties":{"islandName":"Baarah","atoll":"Haa Alifu","capital":"N"}},{"type":"Feature","geometry":{"type":"Point","coordinates":[73.2301,6.8926]},"properties":{"islandName":"Filladhoo","atoll":"Haa Alifu","capital":"N"}},{"type":"Feature","geometry":{"type":"Point","coordinates":[73.0543,6.746]},"properties":{"islandName":"Finey","atoll":"Haa Dhaalu","capital":"N"}},{"type":"Feature","geometry":{"type":"Point","coordinates":[72.9354,6.7464]},"properties":{"islandName":"Naivaadhoo","atoll":"Haa Dhaalu","capital":"N"}},{"type":"Feature","geometry":{"type":"Point","coordinates":[72.9475,6.7156]},"properties":{"islandName":"Nellaidhoo","atoll":"Haa Dhaalu","capital":"N"}},{"type":"Feature","geometry":{"type":"Point","coordinates":[73.0243,6.7254]},"properties":{"islandName":"Hirimaradhoo","atoll":"Haa Dhaalu","capital":"N"}},{"type":"Feature","geometry":{"type":"Point","coordinates":[72.9976,6.6654]},"properties":{"islandName":"Kurin'bi","atoll":"Haa Dhaalu","capital":"N"}},{"type":"Feature","geometry":{"type":"Point","coordinates":[73.0524,6.5698]},"properties":{"islandName":"Kumundhoo","atoll":"Haa Dhaalu","capital":"N"}},{"type":"Feature","geometry":{"type":"Point","coordinates":[72.9808,6.5437]},"properties":{"islandName":"Neykurendhoo","atoll":"Haa Dhaalu","capital":"N"}},{"type":"Feature","geometry":{"type":"Point","coordinates":[72.9536,6.5498]},"properties":{"islandName":"Vaikaradhoo","atoll":"Haa Dhaalu","capital":"N"}},{"type":"Feature","geometry":{"type":"Point","coordinates":[72.7057,6.41]},"properties":{"islandName":"Makunudhoo","atoll":"Haa Dhaalu","capital":"N"}},{"type":"Feature","geometry":{"type":"Point","coordinates":[73.0663,6.6238]},"properties":{"islandName":"Kulhudhuffushi","atoll":"Haa Dhaalu","capital":"Y"}},{"type":"Feature","geometry":{"type":"Point","coordinates":[73.0824,6.6615]},"properties":{"islandName":"Nolhivaran","atoll":"Haa Dhaalu","capital":"N"}},{"type":"Feature","geometry":{"type":"Point","coordinates":[73.1186,6.6941]},"properties":{"islandName":"Nolhivaranfaru","atoll":"Haa Dhaalu","capital":"N"}},{"type":"Feature","geometry":{"type":"Point","coordinates":[73.1674,6.7475]},"properties":{"islandName":"Hanimaadhoo","atoll":"Haa Dhaalu","capital":"N"}},{"type":"Feature","geometry":{"type":"Point","coordinates":[73.5339,2.0125]},"properties":{"islandName":"Mundoo","atoll":"Laamu","capital":"N"}},{"type":"Feature","geometry":{"type":"Point","coordinates":[73.5396,1.9137]},"properties":{"islandName":"Gan","atoll":"Laamu","capital":"N"}},{"type":"Feature","geometry":{"type":"Point","coordinates":[73.3871,1.7961]},"properties":{"islandName":"Hithadhoo","atoll":"Laamu","capital":"N"}},{"type":"Feature","geometry":{"type":"Point","coordinates":[73.3692,1.7841]},"properties":{"islandName":"Kunahandhoo","atoll":"Laamu","capital":"N"}},{"type":"Feature","geometry":{"type":"Point","coordinates":[73.3896,1.8189]},"properties":{"islandName":"Maamendhoo","atoll":"Laamu","capital":"N"}},{"type":"Feature","geometry":{"type":"Point","coordinates":[73.5031,1.8371]},"properties":{"islandName":"Fonadhoo","atoll":"Laamu","capital":"Y"}},{"type":"Feature","geometry":{"type":"Point","coordinates":[73.243,1.8857]},"properties":{"islandName":"Maavah","atoll":"Laamu","capital":"N"}},{"type":"Feature","geometry":{"type":"Point","coordinates":[73.53,2.0257]},"properties":{"islandName":"Maabaidhoo","atoll":"Laamu","capital":"N"}},{"type":"Feature","geometry":{"type":"Point","coordinates":[73.5789,2.1254]},"properties":{"islandName":"Isdhoo","atoll":"Laamu","capital":"N"}},{"type":"Feature","geometry":{"type":"Point","coordinates":[73.5564,2.1114]},"properties":{"islandName":"Kalaidhoo","atoll":"Laamu","capital":"N"}},{"type":"Feature","geometry":{"type":"Point","coordinates":[73.5444,2.0941]},"properties":{"islandName":"Dhan'bidhoo","atoll":"Laamu","capital":"N"}},{"type":"Feature","geometry":{"type":"Point","coordinates":[73.3647,5.4449]},"properties":{"islandName":"Naifaru","atoll":"Lhaviyani","capital":"Y"}},{"type":"Feature","geometry":{"type":"Point","coordinates":[73.4122,5.4921]},"properties":{"islandName":"Hinnavaru","atoll":"Lhaviyani","capital":"N"}},{"type":"Feature","geometry":{"type":"Point","coordinates":[73.4632,5.334]},"properties":{"islandName":"Kurendhoo","atoll":"Lhaviyani","capital":"N"}},{"type":"Feature","geometry":{"type":"Point","coordinates":[73.6073,5.2789]},"properties":{"islandName":"Olhuvelifushi","atoll":"Lhaviyani","capital":"N"}},{"type":"Feature","geometry":{"type":"Point","coordinates":[73.5645,3.1123]},"properties":{"islandName":"Dhiggaru","atoll":"Meemu","capital":"N"}},{"type":"Feature","geometry":{"type":"Point","coordinates":[73.5816,2.9199]},"properties":{"islandName":"Muli","atoll":"Meemu","capital":"Y"}},{"type":"Feature","geometry":{"type":"Point","coordinates":[73.577,2.8959]},"properties":{"islandName":"Naalaafushi","atoll":"Meemu","capital":"N"}},{"type":"Feature","geometry":{"type":"Point","coordinates":[73.5727,3.1043]},"properties":{"islandName":"Maduvvari","atoll":"Meemu","capital":"N"}},{"type":"Feature","geometry":{"type":"Point","coordinates":[73.6001,2.9573]},"properties":{"islandName":"Veyvah","atoll":"Meemu","capital":"N"}},{"type":"Feature","geometry":{"type":"Point","coordinates":[73.4242,2.7783]},"properties":{"islandName":"Kolhufushi","atoll":"Meemu","capital":"N"}},{"type":"Feature","geometry":{"type":"Point","coordinates":[73.5844,2.9456]},"properties":{"islandName":"Mulah","atoll":"Meemu","capital":"N"}},{"type":"Feature","geometry":{"type":"Point","coordinates":[73.6387,3.0895]},"properties":{"islandName":"Raiymandhoo","atoll":"Meemu","capital":"N"}},{"type":"Feature","geometry":{"type":"Point","coordinates":[73.4655,5.8817]},"properties":{"islandName":"Landhoo","atoll":"Noonu","capital":"N"}},{"type":"Feature","geometry":{"type":"Point","coordinates":[73.4561,5.9026]},"properties":{"islandName":"Maalhendhoo","atoll":"Noonu","capital":"N"}},{"type":"Feature","geometry":{"type":"Point","coordinates":[73.216,5.7439]},"properties":{"islandName":"Fodhdhoo","atoll":"Noonu","capital":"N"}},{"type":"Feature","geometry":{"type":"Point","coordinates":[73.4004,5.8827]},"properties":{"islandName":"Kudafari","atoll":"Noonu","capital":"N"}},{"type":"Feature","geometry":{"type":"Point","coordinates":[73.4136,5.7655]},"properties":{"islandName":"Manadhoo","atoll":"Noonu","capital":"Y"}},{"type":"Feature","geometry":{"type":"Point","coordinates":[73.2756,5.6638]},"properties":{"islandName":"Velidhoo","atoll":"Noonu","capital":"N"}},{"type":"Feature","geometry":{"type":"Point","coordinates":[73.3782,5.8154]},"properties":{"islandName":"Lhohi","atoll":"Noonu","capital":"N"}},{"type":"Feature","geometry":{"type":"Point","coordinates":[73.4714,5.8227]},"properties":{"islandName":"Maafaru","atoll":"Noonu","capital":"N"}},{"type":"Feature","geometry":{"type":"Point","coordinates":[73.4134,5.9554]},"properties":{"islandName":"Ken'dhikulhudhoo","atoll":"Noonu","capital":"N"}},{"type":"Feature","geometry":{"type":"Point","coordinates":[73.3629,5.7765]},"properties":{"islandName":"Magoodhoo","atoll":"Noonu","capital":"N"}},{"type":"Feature","geometry":{"type":"Point","coordinates":[73.3923,5.9679]},"properties":{"islandName":"Hen'badhoo","atoll":"Noonu","capital":"N"}},{"type":"Feature","geometry":{"type":"Point","coordinates":[73.3635,5.7904]},"properties":{"islandName":"Miladhoo","atoll":"Noonu","capital":"N"}},{"type":"Feature","geometry":{"type":"Point","coordinates":[73.2488,5.7519]},"properties":{"islandName":"Holhudhoo","atoll":"Noonu","capital":"N"}},{"type":"Feature","geometry":{"type":"Point","coordinates":[72.8957,5.4862]},"properties":{"islandName":"Maduvvari","atoll":"Raa","capital":"N"}},{"type":"Feature","geometry":{"type":"Point","coordinates":[73.0433,5.5629]},"properties":{"islandName":"Rasmaadhoo","atoll":"Raa","capital":"N"}},{"type":"Feature","geometry":{"type":"Point","coordinates":[73.0067,5.7934]},"properties":{"islandName":"An'golhitheemu","atoll":"Raa","capital":"N"}},{"type":"Feature","geometry":{"type":"Point","coordinates":[73.0442,5.6067]},"properties":{"islandName":"Maakurathu","atoll":"Raa","capital":"N"}},{"type":"Feature","geometry":{"type":"Point","coordinates":[73.0442,5.5484]},"properties":{"islandName":"Innamaadhoo","atoll":"Raa","capital":"N"}},{"type":"Feature","geometry":{"type":"Point","coordinates":[73.0321,5.4483]},"properties":{"islandName":"Kinolhas","atoll":"Raa","capital":"N"}},{"type":"Feature","geometry":{"type":"Point","coordinates":[72.954,5.9675]},"properties":{"islandName":"Alifushi","atoll":"Raa","capital":"N"}},{"type":"Feature","geometry":{"type":"Point","coordinates":[73.0022,5.8075]},"properties":{"islandName":"Rasgetheemu","atoll":"Raa","capital":"N"}},{"type":"Feature","geometry":{"type":"Point","coordinates":[73.0124,5.7656]},"properties":{"islandName":"Hulhudhuffaaru","atoll":"Raa","capital":"N"}},{"type":"Feature","geometry":{"type":"Point","coordinates":[72.9558,5.4588]},"properties":{"islandName":"Meedhoo","atoll":"Raa","capital":"N"}},{"type":"Feature","geometry":{"type":"Point","coordinates":[73.0423,5.6294]},"properties":{"islandName":"Dhuvaafaru","atoll":"Raa","capital":"N"}},{"type":"Feature","geometry":{"type":"Point","coordinates":[73.0364,5.4635]},"properties":{"islandName":"Fainu","atoll":"Raa","capital":"N"}},{"type":"Feature","geometry":{"type":"Point","coordinates":[72.9918,5.8553]},"properties":{"islandName":"Vaadhoo","atoll":"Raa","capital":"N"}},{"type":"Feature","geometry":{"type":"Point","coordinates":[73.0294,5.6679]},"properties":{"islandName":"Un'goofaaru","atoll":"Raa","capital":"Y"}},{"type":"Feature","geometry":{"type":"Point","coordinates":[73.0374,5.4768]},"properties":{"islandName":"In'guraidhoo","atoll":"Raa","capital":"N"}},{"type":"Feature","geometry":{"type":"Point","coordinates":[73.1351,-0.6842]},"properties":{"islandName":"Feydhoo","atoll":"Seenu","capital":"N"}},{"type":"Feature","geometry":{"type":"Point","coordinates":[73.126,-0.6743]},"properties":{"islandName":"Maradhoofeydhoo","atoll":"Seenu","capital":"N"}},{"type":"Feature","geometry":{"type":"Point","coordinates":[73.1176,-0.664]},"properties":{"islandName":"Maradhoo","atoll":"Seenu","capital":"N"}},{"type":"Feature","geometry":{"type":"Point","coordinates":[73.092,-0.6076]},"properties":{"islandName":"Hithadhoo","atoll":"Seenu","capital":"Y"}},{"type":"Feature","geometry":{"type":"Point","coordinates":[73.2428,6.2878]},"properties":{"islandName":"Milandhoo","atoll":"Shaviyani","capital":"N"}},{"type":"Feature","geometry":{"type":"Point","coordinates":[73.2183,6.2643]},"properties":{"islandName":"Narudhoo","atoll":"Shaviyani","capital":"N"}},{"type":"Feature","geometry":{"type":"Point","coordinates":[73.1491,6.3267]},"properties":{"islandName":"Foakaidhoo","atoll":"Shaviyani","capital":"N"}},{"type":"Feature","geometry":{"type":"Point","coordinates":[72.9302,6.4296]},"properties":{"islandName":"Goidhoo","atoll":"Shaviyani","capital":"N"}},{"type":"Feature","geometry":{"type":"Point","coordinates":[73.2907,6.151]},"properties":{"islandName":"Funadhoo","atoll":"Shaviyani","capital":"Y"}},{"type":"Feature","geometry":{"type":"Point","coordinates":[73.2516,6.1639]},"properties":{"islandName":"Lhaimagu","atoll":"Shaviyani","capital":"N"}},{"type":"Feature","geometry":{"type":"Point","coordinates":[73.0698,6.4339]},"properties":{"islandName":"Noomaraa","atoll":"Shaviyani","capital":"N"}},{"type":"Feature","geometry":{"type":"Point","coordinates":[72.9759,6.3372]},"properties":{"islandName":"Bileiyfahi","atoll":"Shaviyani","capital":"N"}},{"type":"Feature","geometry":{"type":"Point","coordinates":[72.9163,6.4406]},"properties":{"islandName":"Kan'ditheemu","atoll":"Shaviyani","capital":"N"}},{"type":"Feature","geometry":{"type":"Point","coordinates":[73.0496,6.3609]},"properties":{"islandName":"Feydhoo","atoll":"Shaviyani","capital":"N"}},{"type":"Feature","geometry":{"type":"Point","coordinates":[73.0625,6.2096]},"properties":{"islandName":"Maroshi","atoll":"Shaviyani","capital":"N"}},{"type":"Feature","geometry":{"type":"Point","coordinates":[73.2833,6.0368]},"properties":{"islandName":"Maaun'goodhoo","atoll":"Shaviyani","capital":"N"}},{"type":"Feature","geometry":{"type":"Point","coordinates":[73.2091,6.3495]},"properties":{"islandName":"Feevah","atoll":"Shaviyani","capital":"N"}},{"type":"Feature","geometry":{"type":"Point","coordinates":[73.0539,6.0536]},"properties":{"islandName":"Komandoo","atoll":"Shaviyani","capital":"N"}},{"type":"Feature","geometry":{"type":"Point","coordinates":[72.9422,2.2923]},"properties":{"islandName":"Vandhoo","atoll":"Thaa","capital":"N"}},{"type":"Feature","geometry":{"type":"Point","coordinates":[72.9166,2.3198]},"properties":{"islandName":"Kan'doodhoo","atoll":"Thaa","capital":"N"}},{"type":"Feature","geometry":{"type":"Point","coordinates":[73.1061,2.5591]},"properties":{"islandName":"Buruni","atoll":"Thaa","capital":"N"}},{"type":"Feature","geometry":{"type":"Point","coordinates":[73.3073,2.5028]},"properties":{"islandName":"Vilufushi","atoll":"Thaa","capital":"N"}},{"type":"Feature","geometry":{"type":"Point","coordinates":[72.9322,2.2701]},"properties":{"islandName":"Hirilandhoo","atoll":"Thaa","capital":"N"}},{"type":"Feature","geometry":{"type":"Point","coordinates":[73.0231,2.1682]},"properties":{"islandName":"Omadhoo","atoll":"Thaa","capital":"N"}},{"type":"Feature","geometry":{"type":"Point","coordinates":[73.095,2.1867]},"properties":{"islandName":"Veymandoo","atoll":"Thaa","capital":"Y"}},{"type":"Feature","geometry":{"type":"Point","coordinates":[73.1476,2.2091]},"properties":{"islandName":"Thimarafushi","atoll":"Thaa","capital":"N"}},{"type":"Feature","geometry":{"type":"Point","coordinates":[73.2128,2.2525]},"properties":{"islandName":"Gaadhiffushi","atoll":"Thaa","capital":"N"}},{"type":"Feature","geometry":{"type":"Point","coordinates":[73.3182,2.3242]},"properties":{"islandName":"Guraidhoo","atoll":"Thaa","capital":"N"}},{"type":"Feature","geometry":{"type":"Point","coordinates":[73.3369,2.3407]},"properties":{"islandName":"Dhiyamigili","atoll":"Thaa","capital":"N"}},{"type":"Feature","geometry":{"type":"Point","coordinates":[73.0667,2.169]},"properties":{"islandName":"Kin'bidhoo","atoll":"Thaa","capital":"N"}},{"type":"Feature","geometry":{"type":"Point","coordinates":[73.3542,2.3579]},"properties":{"islandName":"Madifushi","atoll":"Thaa","capital":"N"}},{"type":"Feature","geometry":{"type":"Point","coordinates":[73.4161,3.6806]},"properties":{"islandName":"Fulidhoo","atoll":"Vaavu","capital":"N"}},{"type":"Feature","geometry":{"type":"Point","coordinates":[73.5387,3.4875]},"properties":{"islandName":"Thinadhoo","atoll":"Vaavu","capital":"N"}},{"type":"Feature","geometry":{"type":"Point","coordinates":[73.547,3.472]},"properties":{"islandName":"Felidhoo","atoll":"Vaavu","capital":"Y"}},{"type":"Feature","geometry":{"type":"Point","coordinates":[73.5504,3.462]},"properties":{"islandName":"Keyodhoo","atoll":"Vaavu","capital":"N"}},{"type":"Feature","geometry":{"type":"Point","coordinates":[73.4695,3.3152]},"properties":{"islandName":"Rakeedhoo","atoll":"Vaavu","capital":"N"}},{"type":"Feature","geometry":{"type":"Point","coordinates":[73.4255,-0.2954]},"properties":{"islandName":"Fuvahmulah","atoll":"Gnaviyani","capital":"Y"}},{"type":"Feature","geometry":{"type":"Point","coordinates":[73.4599,4.958]},"properties":{"islandName":"Kaashidhoo","atoll":"Kaafu","capital":"N"}},{"type":"Feature","geometry":{"type":"Point","coordinates":[73.4981,4.7365]},"properties":{"islandName":"Gaafaru","atoll":"Kaafu","capital":"N"}},{"type":"Feature","geometry":{"type":"Point","coordinates":[73.7145,4.4422]},"properties":{"islandName":"Dhiffushi","atoll":"Kaafu","capital":"N"}},{"type":"Feature","geometry":{"type":"Point","coordinates":[73.648,4.374]},"properties":{"islandName":"Thulusdhoo","atoll":"Kaafu","capital":"Y"}},{"type":"Feature","geometry":{"type":"Point","coordinates":[73.6014,4.3344]},"properties":{"islandName":"Huraa","atoll":"Kaafu","capital":"N"}},{"type":"Feature","geometry":{"type":"Point","coordinates":[73.5706,4.3087]},"properties":{"islandName":"Hinmafushi","atoll":"Kaafu","capital":"N"}},{"type":"Feature","geometry":{"type":"Point","coordinates":[73.486,4.1733]},"properties":{"islandName":"Vilin'gili","atoll":"MLE","capital":"N"}},{"type":"Feature","geometry":{"type":"Point","coordinates":[73.468,3.9005]},"properties":{"islandName":"Guraidhoo","atoll":"Kaafu","capital":"N"}},{"type":"Feature","geometry":{"type":"Point","coordinates":[73.4902,3.9415]},"properties":{"islandName":"Maafushi","atoll":"Kaafu","capital":"N"}},{"type":"Feature","geometry":{"type":"Point","coordinates":[73.5339,4.2234]},"properties":{"islandName":"Hulhumalé","atoll":"MLE","capital":"N"}},{"type":"Feature","geometry":{"type":"Point","coordinates":[73.5098,4.1743]},"properties":{"islandName":"Malé","atoll":"MLE","capital":"Y"}},{"type":"Feature","geometry":{"type":"Point","coordinates":[73.5084,3.9912]},"properties":{"islandName":"Gulhi","atoll":"Kaafu","capital":"N"}},{"type":"Feature","geometry":{"type":"Point","coordinates":[72.9685,3.7576]},"properties":{"islandName":"Mahibadhoo","atoll":"Alifu Dhaalu","capital":"Y"}},{"type":"Feature","geometry":{"type":"Point","coordinates":[72.8447,3.4779]},"properties":{"islandName":"Maamigili","atoll":"Alifu Dhaalu","capital":"N"}},{"type":"Feature","geometry":{"type":"Point","coordinates":[73.2247,-0.5849]},"properties":{"islandName":"Addu Meedhoo","atoll":"Seenu","capital":"N"}},{"type":"Feature","geometry":{"type":"Point","coordinates":[73.2254,-0.5996]},"properties":{"islandName":"Addu Hulhudhoo","atoll":"Seenu","capital":"N"}}]}
